ANIK F1                 
1 26624U 00076A   23024.53033160 -.00000069  00000+0  00000+0 0  9999
2 26624   1.9962  89.9796 0002251 243.4456 231.8834  1.00271006 81291
NAVSTAR 50 (USA 156)    
1 26690U 01004A   23023.53112017 -.00000032  00000+0  00000+0 0  9992
2 26690  54.1490  78.4219 0003028 276.4462  98.8181  1.91595063159754
ODIN                    
1 26702U 01007A   23024.01180836  .00007828  00000+0  46139-3 0  9993
2 26702  97.5118  39.8634 0008739 244.7085 115.3240 15.11823721200188
USA 157 (MILSTAR-2 2)   
1 26715U 01009A   23024.08157088  .00000006  00000+0  00000+0 0  9993
2 26715  10.2202  26.3070 0003401 247.2883 114.6349  1.00275038 19217
EUTELSAT 133 WEST A     
1 26719U 01011A   23023.58718128 -.00000240  00000+0  00000+0 0  9993
2 26719   4.2565  80.6278 0004265 204.6928 323.3118  1.00539993 80130
BSAT-2A                 
1 26720U 01011B   23022.98333949 -.00000263  00000+0  00000+0 0  9997
2 26720   8.0725  57.5545 0003019 205.9428 336.1662  0.99178739 79652
INTELSAT 10 (IS-10)     
1 26766U 01019A   23023.85480947  .00000026  00000+0  00000+0 0  9999
2 26766   6.1011  71.4652 0003237 222.2768 314.6959  1.00271762 79499
INTELSAT 901 (IS-901)   
1 26824U 01024A   23024.67463693 -.00000208  00000+0  00000+0 0  9993
2 26824   0.0536 259.4584 0000878  61.4874  18.1278  1.00270106 79154
ASTRA 2C                
1 26853U 01025A   23024.09185634 -.00000267  00000+0  00000+0 0  9993
2 26853   5.1089  77.2116 0002867 224.0112 142.5148  1.00269687 79143
OMNI-M1                 
1 26857U 01026A   23019.80208535  .00000019  00000+0  00000+0 0  9991
2 26857  44.7884 171.5673 0017639 106.6512 253.5477  3.92402764156734
USA 159 (DSP 21)        
1 26880U 01033A   23023.48460194 -.00000303  00000+0  00000+0 0  9992
2 26880  11.6227  24.4465 0000298 213.1302  10.3566  1.00273663 19178
INTELSAT 902 (IS-902)   
1 26900U 01039A   23024.23977520 -.00000289  00000+0  00000+0 0  9994
2 26900   2.9613  86.5708 0002761 209.8064 223.1272  1.00275599 78337
PCSAT (NO-44)           
1 26931U 01043C   23024.14025370  .00000368  00000+0  17185-3 0  9993
2 26931  67.0494 208.7329 0005561 280.9170  79.1305 14.30802165113132
PROBA-1                 
1 26958U 01049B   23024.85416263  .00005747  00000+0  47784-3 0  9995
2 26958  97.8556 350.1548 0069126 326.8705  32.8196 14.97250601157583
BIRD 2                  
1 26959U 01049C   23024.82617072  .00037866  00000+0  60753-3 0  9992
2 26959  97.7646 137.7530 0005045 296.9305  63.1431 15.52960132181187
TIMED                   
1 26998U 01055B   23024.84785212  .00002383  00000+0  25630-3 0  9997
2 26998  74.0718 198.4464 0001319 320.4221  39.6864 14.89138111146090
MAROC-TUBSAT            
1 27004U 01056D   23023.85778899 -.00000009  00000+0  40779-4 0  9996
2 27004  99.6541 169.6191 0020623  85.5933  34.8689 13.70166717 56321
COSMOS 2385             
1 27056U 01058B   23024.59553231  .00000009  00000+0 -10502-4 0  9999
2 27056  82.5399 292.5834 0006054 140.2859 219.8674 12.60522074969768
COSMOS 2386             
1 27057U 01058C   23024.80349216  .00000057  00000+0  26181-3 0  9991
2 27057  82.5443 287.5845 0001184  44.3493 315.7693 12.61571207970573
USA 164 (MILSTAR-2 3)   
1 27168U 02001A   23024.34424159  .00000093  00000+0  00000+0 0  9990
2 27168   9.7408  28.1144 0002558 260.9113 337.2285  1.00273097 19218
RHESSI                  
1 27370U 02004A   23024.12850761  .00115425  00000+0  13239-2 0  9993
2 27370  38.0276  53.2685 0007538 208.8837 151.1527 15.60793635160874
INTELSAT 904 (IS-904)   
1 27380U 02007A   23024.45901003 -.00000221  00000+0  00000+0 0  9996
2 27380   3.7913  83.5890 0003019 228.6100 307.0344  1.00272208 76657
TDRS 9                  
1 27389U 02011A   23018.60000000 -.00000103  00000+0  00000+0 0  9996
2 27389   9.4880  58.5150 0003840 191.4570   1.3680  0.99394258 77940
NSS-7                   
1 27414U 02019A   23024.02063236 -.00000167  00000+0  00000+0 0  9996
2 27414   6.4138  69.4732 0002784 242.9912 158.0139  1.00271470 76128
AQUA                    
1 27424U 02022A   23024.83483616  .00001827  00000+0  41106-3 0  9997
2 27424  98.2727 329.9227 0000619  85.2790 331.4282 14.57623195102477
DIRECTV 5 (TEMPO 1)     
1 27426U 02023A   23023.66606708 -.00000061  00000+0  00000+0 0  9993
2 27426   1.6882  90.6435 0003124 217.8633 303.8527  1.00271071 75868
INTELSAT 905 (IS-905)   
1 27438U 02027A   23024.46005602 -.00000192  00000+0  00000+0 0  9990
2 27438   3.6140  84.3018 0002665 217.9195 322.3907  1.00272276 75530
GALAXY 3C (G-3C)        
1 27445U 02030A   23024.08741093 -.00000158  00000+0  00000+0 0  9993
2 27445   0.5376  92.3386 0000866 231.1111  96.3073  1.00270735 75517
COSMOS 2390             
1 27464U 02036A   23023.84614546  .00000029  00000+0  13185-3 0  9993
2 27464  82.4834  40.4802 0026546  91.6600 268.7524 12.44585442933522
COSMOS 2391             
1 27465U 02036B   23024.58497202  .00000033  00000+0  16005-3 0  9993
2 27465  82.4826  37.0611 0027455  84.4649 275.9559 12.44906594933845
INTELSAT 906 (IS-906)   
1 27513U 02041A   23024.76459112  .00000008  00000+0  00000+0 0  9997
2 27513   2.6326  87.9618 0004320 200.8221 174.4079  1.00271925 74541
INTEGRAL                
1 27540U 02048A   23023.09841102 -.00000164  00000+0  00000+0 0  9997
2 27540  80.8896  46.5373 8836844 294.8134 352.0421  0.37571753 21962
TDRS 10                 
1 27566U 02055A   23024.45244328  .00000081  00000+0  00000+0 0  9998
2 27566   8.6072  48.7007 0007161 314.6411 111.8859  1.00274559 73794
NSS-6                   
1 27603U 02057A   23024.60474302  .00000101  00000+0  00000+0 0  9999
2 27603   2.1710  89.1206 0003414 212.5320 230.1953  1.00269022 73605
LATINSAT B              
1 27606U 02058B   23023.60508526  .00001922  00000+0  30107-3 0  9995
2 27606  64.5567  80.4350 0090794 258.8110 100.2774 14.72957851 79163
SAUDISAT 1C (SO-50)     
1 27607U 02058C   23024.15166773  .00002799  00000+0  39915-3 0  9990
2 27607  64.5572 346.3182 0079278 252.6995 106.5424 14.76654401 81167
LATINSAT A              
1 27612U 02058H   23024.81154920  .00002293  00000+0  31178-3 0  9992
2 27612  64.5548 194.9705 0053204 240.0156 119.5662 14.80305622 84091
NIMIQ 2                 
1 27632U 02062A   23024.65807560 -.00000075  00000+0  00000+0 0  9999
2 27632   6.5197  68.8629 0006405 213.6965 328.8441  1.00272892 73434
CORIOLIS                
1 27640U 03001A   23024.50358737  .00000225  00000+0  12794-3 0  9996
2 27640  98.7169  34.9171 0014196 177.7038 335.9151 14.19193518 38303
SORCE                   
1 27651U 03004A   23023.81208588  .00004156  00000+0  42745-3 0  9998
2 27651  39.9956  66.4567 0022871 224.9323 134.9615 14.90763031 85975
NAVSTAR 51 (USA 166)    
1 27663U 03005A   23024.54386804  .00000011  00000+0  00000+0 0  9991
2 27663  55.3695 264.2752 0131661  42.6437 246.4856  2.00551533146449
USA 167                 
1 27691U 03008A   23024.65481618  .00000044  00000+0  00000+0 0  9992
2 27691   8.4764  53.1767 0001006 271.3531 264.9654  1.00275239 19199
NAVSTAR 52 (USA 168)    
1 27704U 03010A   23020.37497878 -.00000064  00000+0  00000+0 0  9993
2 27704  55.0867  14.5327 0249444 311.9790  65.6063  2.00565184145166
USA 169 (MILSTAR-2 4)   
1 27711U 03012A   23023.87341024 -.00000203  00000+0  00000+0 0  9997
2 27711  10.4540  38.8328 0003239 259.2187 291.4196  1.00269253 19209
GALAXY 12 (G-12)        
1 27715U 03013B   23024.72606425  .00000050  00000+0  00000+0 0  9995
2 27715   3.8251  83.2545 0001954 233.4057 299.4746  1.00272056 72578
ASIASAT 4               
1 27718U 03014A   23024.71646698 -.00000228  00000+0  00000+0 0  9992
2 27718   1.5246  91.3319 0002910 222.5823 215.3308  1.00271520 72499
HELLAS-SAT 2            
1 27811U 03020A   23024.03258421 -.00000090  00000+0  00000+0 0  9998
2 27811   4.2364  82.2302 0007035 214.7238 187.8187  1.00271405 71906
THURAYA-2               
1 27825U 03026A   23024.18677892  .00000120  00000+0  00000+0 0  9995
2 27825   7.0137  34.5602 0002324 240.7028 319.2122  1.00273909 71906
OPTUS C1                
1 27831U 03028B   23024.56113828 -.00000159  00000+0  00000+0 0  9993
2 27831   3.7552  84.0259 0005590 220.3871 176.8820  1.00269579 71891
MOST                    
1 27843U 03031D   23024.63625562  .00000182  00000+0  10481-3 0  9994
2 27843  98.7084  33.9890 0009190 225.8471 134.1951 14.20737901 14667
CUTE-1 (CO-55)          
1 27844U 03031E   23024.00598744  .00000635  00000+0  30337-3 0  9992
2 27844  98.6795  33.3779 0009880 177.3679 182.7552 14.22600849 15268
CUBESAT XI-IV (CO-57)   
1 27848U 03031J   23024.74248403  .00000534  00000+0  26059-3 0  9995
2 27848  98.6836  34.5684 0009512 189.8395 170.2598 14.22137624 15168
GALAXY 23 (G-23)        
1 27854U 03034A   23024.72772038  .00000008  00000+0  00000+0 0  9999
2 27854   0.0050  57.7609 0002685 251.8331 315.1603  1.00271623 76117
SCISAT 1                
1 27858U 03036A   23024.76084086  .00001413  00000+0  20135-3 0  9994
2 27858  73.9328 107.0657 0006360  93.4055 266.7847 14.77846035 48132
COSMOS 2400             
1 27868U 03037A   23024.35217782  .00000048  00000+0  26858-3 0  9993
2 27868  82.4717  27.2262 0020537 247.5597 112.3310 12.45151885883346
COSMOS 2401             
1 27869U 03037B   23024.62753750  .00000035  00000+0  17780-3 0  9994
2 27869  82.4701  23.9693 0021242 243.8791 116.0102 12.45467508883601
USA 170                 
1 27875U 03040A   23023.95439731 -.00000281  00000+0  00000+0 0  9997
2 27875   7.8471  58.3736 0001896 226.9669 138.8185  1.00266442 19193
MOZHAYETS 4 (RS-22)     
1 27939U 03042A   23024.85409998  .00002385  00000+0  42648-3 0  9996
2 27939  98.2172 170.9894 0011895 225.7478 134.2756 14.67796107 33516
GALAXY 13 (HORIZONS-1)  
1 27954U 03044A   23024.50873309  .00000043  00000+0  00000+0 0  9999
2 27954   0.0077  42.5614 0001223 266.3739 230.7327  1.00272308 70722
